EXCITE                  
1 43819U 18099BP  26068.69809098  .00002813  00000+0  19631-3 0  9999
2 43819  97.4107 111.3606 0017626 337.4818  22.5634 15.06036758396774
STARLINK-3153           
1 49431U 21104Z   26068.71195164 -.00000099  00000+0  11859-4 0  9991
2 49431  53.2163 229.2030 0001293  91.3606 268.7535 15.08846608238635
